CCSDS_OMM_VERS = 2.0
CREATION_DATE  = 
ORIGINATOR     = 

OBJECT_NAME    = GXIBA-1
OBJECT_ID      = 1998-067YA
CENTER_NAME    = EARTH
REF_FRAME      = TEME
TIME_SYSTEM    = UTC
MEAN_ELEMENT_THEORY = SGP/SGP4

EPOCH          = 2026-03-18T21:21:05.764320
MEAN_MOTION    = 15.55813572
ECCENTRICITY   = .0011854
INCLINATION    = 51.6310
RA_OF_ASC_NODE = 25.5927
ARG_OF_PERICENTER = 207.8313
MEAN_ANOMALY   = 152.2045

EPHEMERIS_TYPE = 0
CLASSIFICATION_TYPE = U
NORAD_CAT_ID   = 67684
ELEMENT_SET_NO = 999
REV_AT_EPOCH   = 622
BSTAR          = .92235E-3
MEAN_MOTION_DOT = .65183E-3
MEAN_MOTION_DDOT = 0

CCSDS_OMM_VERS = 2.0
CREATION_DATE  = 
ORIGINATOR     = 

OBJECT_NAME    = CORAL
OBJECT_ID      = 1998-067YB
CENTER_NAME    = EARTH
REF_FRAME      = TEME
TIME_SYSTEM    = UTC
MEAN_ELEMENT_THEORY = SGP/SGP4

EPOCH          = 2026-03-18T03:43:14.914272
MEAN_MOTION    = 15.52965300
ECCENTRICITY   = .00115872
INCLINATION    = 51.6324
RA_OF_ASC_NODE = 29.6861
ARG_OF_PERICENTER = 212.5477
MEAN_ANOMALY   = 147.4800

EPHEMERIS_TYPE = 0
CLASSIFICATION_TYPE = U
NORAD_CAT_ID   = 67685
ELEMENT_SET_NO = 999
REV_AT_EPOCH   = 610
BSTAR          = .565829E-3
MEAN_MOTION_DOT = .35685E-3
MEAN_MOTION_DDOT = 0

CCSDS_OMM_VERS = 2.0
CREATION_DATE  = 
ORIGINATOR     = 

OBJECT_NAME    = ISS OBJECT YC
OBJECT_ID      = 1998-067YC
CENTER_NAME    = EARTH
REF_FRAME      = TEME
TIME_SYSTEM    = UTC
MEAN_ELEMENT_THEORY = SGP/SGP4

EPOCH          = 2026-03-18T01:57:44.960832
MEAN_MOTION    = 15.53669122
ECCENTRICITY   = .00085421
INCLINATION    = 51.6325
RA_OF_ASC_NODE = 29.9492
ARG_OF_PERICENTER = 181.6034
MEAN_ANOMALY   = 178.4931

EPHEMERIS_TYPE = 0
CLASSIFICATION_TYPE = U
NORAD_CAT_ID   = 67686
ELEMENT_SET_NO = 999
REV_AT_EPOCH   = 609
BSTAR          = .66325202E-3
MEAN_MOTION_DOT = .4299E-3
MEAN_MOTION_DDOT = 0

CCSDS_OMM_VERS = 2.0
CREATION_DATE  = 
ORIGINATOR     = 

OBJECT_NAME    = LEOPARD
OBJECT_ID      = 1998-067YD
CENTER_NAME    = EARTH
REF_FRAME      = TEME
TIME_SYSTEM    = UTC
MEAN_ELEMENT_THEORY = SGP/SGP4

EPOCH          = 2026-03-18T20:47:21.502176
MEAN_MOTION    = 15.52781134
ECCENTRICITY   = .0008259
INCLINATION    = 51.6323
RA_OF_ASC_NODE = 26.1872
ARG_OF_PERICENTER = 188.0811
MEAN_ANOMALY   = 172.0047

EPHEMERIS_TYPE = 0
CLASSIFICATION_TYPE = U
NORAD_CAT_ID   = 67687
ELEMENT_SET_NO = 999
REV_AT_EPOCH   = 613
BSTAR          = .51892E-3
MEAN_MOTION_DOT = .32411E-3
MEAN_MOTION_DDOT = 0

CCSDS_OMM_VERS = 2.0
CREATION_DATE  = 
ORIGINATOR     = 

OBJECT_NAME    = ISS OBJECT YE
OBJECT_ID      = 1998-067YE
CENTER_NAME    = EARTH
REF_FRAME      = TEME
TIME_SYSTEM    = UTC
MEAN_ELEMENT_THEORY = SGP/SGP4

EPOCH          = 2026-03-18T03:36:14.572224
MEAN_MOTION    = 15.53349847
ECCENTRICITY   = .00083347
INCLINATION    = 51.6321
RA_OF_ASC_NODE = 29.6558
ARG_OF_PERICENTER = 182.6297
MEAN_ANOMALY   = 177.4651

EPHEMERIS_TYPE = 0
CLASSIFICATION_TYPE = U
NORAD_CAT_ID   = 67688
ELEMENT_SET_NO = 999
REV_AT_EPOCH   = 602
BSTAR          = .6226299E-3
MEAN_MOTION_DOT = .3984E-3
MEAN_MOTION_DDOT = 0

CCSDS_OMM_VERS = 2.0
CREATION_DATE  = 
ORIGINATOR     = 

OBJECT_NAME    = CREW DRAGON 12
OBJECT_ID      = 2026-031A
CENTER_NAME    = EARTH
REF_FRAME      = TEME
TIME_SYSTEM    = UTC
MEAN_ELEMENT_THEORY = SGP/SGP4

EPOCH          = 2026-03-18T19:21:54.268704
MEAN_MOTION    = 15.48363739
ECCENTRICITY   = .0006207
INCLINATION    = 51.6341
RA_OF_ASC_NODE = 27.2872
ARG_OF_PERICENTER = 206.1038
MEAN_ANOMALY   = 153.9638

EPHEMERIS_TYPE = 0
CLASSIFICATION_TYPE = U
NORAD_CAT_ID   = 67796
ELEMENT_SET_NO = 999
REV_AT_EPOCH   = 55766
BSTAR          = .16833E-3
MEAN_MOTION_DOT = .8636E-4
MEAN_MOTION_DDOT = 0

