GXIBA-1                 
1 67684U 98067YA  26077.88965005  .00065183  00000+0  92235-3 0  9990
2 67684  51.6310  25.5927 0011854 207.8313 152.2045 15.55813572  6223
CORAL                   
1 67685U 98067YB  26077.15503373  .00035685  00000+0  56583-3 0  9997
2 67685  51.6324  29.6861 0011587 212.5477 147.4800 15.52965300  6104
ISS OBJECT YC           
1 67686U 98067YC  26077.08177038  .00042990  00000+0  66325-3 0  9997
2 67686  51.6325  29.9492 0008542 181.6034 178.4931 15.53669122  6092
LEOPARD                 
1 67687U 98067YD  26077.86622109  .00032411  00000+0  51892-3 0  9998
2 67687  51.6323  26.1872 0008259 188.0811 172.0047 15.52781134  6131
ISS OBJECT YE           
1 67688U 98067YE  26077.15016866  .00039840  00000+0  62263-3 0  9995
2 67688  51.6321  29.6558 0008334 182.6297 177.4651 15.53349847  6021
CREW DRAGON 12          
1 67796U 26031A   26077.80687811  .00008636  00000+0  16833-3 0  9994
2 67796  51.6341  27.2872 0006207 206.1038 153.9638 15.48363739557663
